{
  "type": "FeatureCollection",
  "features": [
    {
      "type": "Feature",
      "properties": {
        "norad_id": 54259,
        "name": "EUTELSAT 10B",
        "group": "eutelsat",
        "lat": 0.05908038709617867,
        "lon": -171.59086585976468,
        "alt_km": 35793.574286223746,
        "timestamp": "2025-12-27T05:29:38.865785+00:00",
        "meta_object_name": "EUTELSAT 10B",
        "meta_object_id": "2022-157A",
        "meta_epoch": "2025-12-26T08:43:38.554752",
        "meta_mean_motion": 1.00276364,
        "meta_eccentricity": 0.00022407,
        "meta_inclination": 0.0597,
        "meta_ra_of_asc_node": 94.7662,
        "meta_arg_of_pericenter": 293.3487,
        "meta_mean_anomaly": 207.9237,
        "meta_ephemeris_type": 0,
        "meta_classification_type": "U",
        "meta_norad_cat_id": 54259,
        "meta_element_set_no": 999,
        "meta_rev_at_epoch": 1129,
        "meta_bstar": 0,
        "meta_mean_motion_dot": 9.1e-07,
        "meta_mean_motion_ddot": 0,
        "tle_line1": "1 54259U 22157A   25360.36364068  .00000091  00000+0  00000+0 0  9992",
        "tle_line2": "2 54259   0.0597  94.7662 0002240 293.3487 207.9237  1.00276364 11298"
      },
      "geometry": {
        "type": "Point",
        "coordinates": [
          -171.59086585976468,
          0.05908038709617867
        ]
      }
    },
    {
      "type": "Feature",
      "properties": {
        "norad_id": 59346,
        "name": "EUTELSAT 36D",
        "group": "eutelsat",
        "lat": -0.008317215075820372,
        "lon": -145.76312035261284,
        "alt_km": 35788.9589940059,
        "timestamp": "2025-12-27T05:29:38.865796+00:00",
        "meta_object_name": "EUTELSAT 36D",
        "meta_object_id": "2024-059A",
        "meta_epoch": "2025-12-26T22:30:38.456640",
        "meta_mean_motion": 1.00263998,
        "meta_eccentricity": 3.096e-05,
        "meta_inclination": 0.0196,
        "meta_ra_of_asc_node": 28.2975,
        "meta_arg_of_pericenter": 310.2493,
        "meta_mean_anomaly": 130.6699,
        "meta_ephemeris_type": 0,
        "meta_classification_type": "U",
        "meta_norad_cat_id": 59346,
        "meta_element_set_no": 999,
        "meta_rev_at_epoch": 642,
        "meta_bstar": 0,
        "meta_mean_motion_dot": 0,
        "meta_mean_motion_ddot": 0,
        "tle_line1": "1 59346U 24059A   25360.93794510  .00000000  00000+0  00000+0 0  9999",
        "tle_line2": "2 59346   0.0196  28.2975 0000309 310.2493 130.6699  1.00263998  6426"
      },
      "geometry": {
        "type": "Point",
        "coordinates": [
          -145.76312035261284,
          -0.008317215075820372
        ]
      }
    }
  ]
}